[{"OBJECT_NAME":"STARLINK-4207","OBJECT_ID":"2022-062AT","EPOCH":"2026-03-09T04:00:13.876128","MEAN_MOTION":15.08841242,"ECCENTRICITY":0.00014491,"INCLINATION":53.2194,"RA_OF_ASC_NODE":16.4682,"ARG_OF_PERICENTER":82.0425,"MEAN_ANOMALY":278.0732,"EPHEMERIS_TYPE":0,"CLASSIFICATION_TYPE":"U","NORAD_CAT_ID":52871,"ELEMENT_SET_NO":999,"REV_AT_EPOCH":20598,"BSTAR":3.3511823e-5,"MEAN_MOTION_DOT":2.45e-6,"MEAN_MOTION_DDOT":0},{"OBJECT_NAME":"PSLV R\/B","OBJECT_ID":"2010-035F","EPOCH":"2026-03-09T21:32:02.806944","MEAN_MOTION":15.11637156,"ECCENTRICITY":0.00120112,"INCLINATION":97.9796,"RA_OF_ASC_NODE":355.2302,"ARG_OF_PERICENTER":197.9598,"MEAN_ANOMALY":162.1208,"EPHEMERIS_TYPE":0,"CLASSIFICATION_TYPE":"U","NORAD_CAT_ID":36800,"ELEMENT_SET_NO":999,"REV_AT_EPOCH":85407,"BSTAR":0.00037264097,"MEAN_MOTION_DOT":6.275e-5,"MEAN_MOTION_DDOT":0}]
